{"type": "FeatureCollection", "features": [ {"type": "Feature", "properties": {"norad_id": 17070, "name": "POLAR BEAR", "group": "nnss", "lat": 48.94796306187212, "lon": -175.49731215829732, "alt_km": 976.972063695508, "timestamp": "2025-12-05T11:32:56.287344+00:00", "meta": {"OBJECT_NAME": "POLAR BEAR", "OBJECT_ID": "1986-088A", "EPOCH": "2025-12-04T14:38:26.434752", "MEAN_MOTION": 13.75248292, "ECCENTRICITY": 0.0040398, "INCLINATION": 89.618, "RA_OF_ASC_NODE": 184.0988, "ARG_OF_PERICENTER": 142.9088, "MEAN_ANOMALY": 276.0886, "EPHEMERIS_TYPE": 0, "CLASSIFICATION_TYPE": "U", "NORAD_CAT_ID": 17070, "ELEMENT_SET_NO": 999, "REV_AT_EPOCH": 95867, "BSTAR": 0.00016782, "MEAN_MOTION_DOT": 1.73e-06, "MEAN_MOTION_DDOT": 0}, "tle": {"line1": "1 17070U 86088A   25338.61002818  .00000173  00000+0  16782-3 0  9999", "line2": "2 17070  89.6180 184.0988 0040398 142.9088 276.0886 13.75248292958678"}}, "geometry": {"type": "Point", "coordinates": [-175.49731215829732, 48.94796306187212]}}, {"type": "Feature", "properties": {"norad_id": 18361, "name": "OSCAR 27", "group": "nnss", "lat": 19.46860672564471, "lon": 78.8683949823825, "alt_km": 1144.5862775520418, "timestamp": "2025-12-05T11:32:56.287354+00:00", "meta": {"OBJECT_NAME": "OSCAR 27", "OBJECT_ID": "1987-080A", "EPOCH": "2025-12-04T15:48:35.867808", "MEAN_MOTION": 13.44904063, "ECCENTRICITY": 0.0102446, "INCLINATION": 90.3742, "RA_OF_ASC_NODE": 78.97, "ARG_OF_PERICENTER": 247.2694, "MEAN_ANOMALY": 111.7601, "EPHEMERIS_TYPE": 0, "CLASSIFICATION_TYPE": "U", "NORAD_CAT_ID": 18361, "ELEMENT_SET_NO": 999, "REV_AT_EPOCH": 87448, "BSTAR": 0.00026829, "MEAN_MOTION_DOT": 1.7e-06, "MEAN_MOTION_DDOT": 0}, "tle": {"line1": "1 18361U 87080A   25338.65874847  .00000170  00000+0  26829-3 0  9999", "line2": "2 18361  90.3742  78.9700 0102446 247.2694 111.7601 13.44904063874480"}}, "geometry": {"type": "Point", "coordinates": [78.8683949823825, 19.46860672564471]}}, {"type": "Feature", "properties": {"norad_id": 18362, "name": "OSCAR 29", "group": "nnss", "lat": 43.64573483385933, "lon": 79.10069717786588, "alt_km": 1143.8977652455906, "timestamp": "2025-12-05T11:32:56.287365+00:00", "meta": {"OBJECT_NAME": "OSCAR 29", "OBJECT_ID": "1987-080B", "EPOCH": "2025-12-04T07:01:08.237280", "MEAN_MOTION": 13.44445999, "ECCENTRICITY": 0.0103714, "INCLINATION": 90.3755, "RA_OF_ASC_NODE": 79.4145, "ARG_OF_PERICENTER": 271.7522, "MEAN_ANOMALY": 140.9753, "EPHEMERIS_TYPE": 0, "CLASSIFICATION_TYPE": "U", "NORAD_CAT_ID": 18362, "ELEMENT_SET_NO": 999, "REV_AT_EPOCH": 87396, "BSTAR": 0.00022874, "MEAN_MOTION_DOT": 1.45e-06, "MEAN_MOTION_DDOT": 0}, "tle": {"line1": "1 18362U 87080B   25338.29245645  .00000145  00000+0  22874-3 0  9996", "line2": "2 18362  90.3755  79.4145 0103714 271.7522 140.9753 13.44445999873967"}}, "geometry": {"type": "Point", "coordinates": [79.10069717786588, 43.64573483385933]}}, {"type": "Feature", "properties": {"norad_id": 19070, "name": "OSCAR 23", "group": "nnss", "lat": -74.80856838565029, "lon": -165.0197493632488, "alt_km": 1078.443822815586, "timestamp": "2025-12-05T11:32:56.287375+00:00", "meta": {"OBJECT_NAME": "OSCAR 23", "OBJECT_ID": "1988-033A", "EPOCH": "2025-12-04T16:47:37.218912", "MEAN_MOTION": 13.27785277, "ECCENTRICITY": 0.0188859, "INCLINATION": 90.3222, "RA_OF_ASC_NODE": 16.1432, "ARG_OF_PERICENTER": 202.3081, "MEAN_ANOMALY": 277.4434, "EPHEMERIS_TYPE": 0, "CLASSIFICATION_TYPE": "U", "NORAD_CAT_ID": 19070, "ELEMENT_SET_NO": 999, "REV_AT_EPOCH": 82146, "BSTAR": 0.00021638, "MEAN_MOTION_DOT": 1.15e-06, "MEAN_MOTION_DDOT": 0}, "tle": {"line1": "1 19070U 88033A   25338.69973633  .00000115  00000+0  21638-3 0  9995", "line2": "2 19070  90.3222  16.1432 0188859 202.3081 277.4434 13.27785277821460"}}, "geometry": {"type": "Point", "coordinates": [-165.0197493632488, -74.80856838565029]}}, {"type": "Feature", "properties": {"norad_id": 19071, "name": "OSCAR 32", "group": "nnss", "lat": -0.8348546207336823, "lon": 16.303777513391644, "alt_km": 1297.599988014461, "timestamp": "2025-12-05T11:32:56.287385+00:00", "meta": {"OBJECT_NAME": "OSCAR 32", "OBJECT_ID": "1988-033B", "EPOCH": "2025-12-04T16:15:19.253088", "MEAN_MOTION": 13.27952429, "ECCENTRICITY": 0.0187676, "INCLINATION": 90.3226, "RA_OF_ASC_NODE": 16.2739, "ARG_OF_PERICENTER": 189.2128, "MEAN_ANOMALY": 288.8586, "EPHEMERIS_TYPE": 0, "CLASSIFICATION_TYPE": "U", "NORAD_CAT_ID": 19071, "ELEMENT_SET_NO": 999, "REV_AT_EPOCH": 82158, "BSTAR": 0.00024792, "MEAN_MOTION_DOT": 1.32e-06, "MEAN_MOTION_DDOT": 0}, "tle": {"line1": "1 19071U 88033B   25338.67730617  .00000132  00000+0  24792-3 0  9990", "line2": "2 19071  90.3226  16.2739 0187676 189.2128 288.8586 13.27952429821589"}}, "geometry": {"type": "Point", "coordinates": [16.303777513391644, -0.8348546207336823]}}, {"type": "Feature", "properties": {"norad_id": 19223, "name": "NOVA 2", "group": "nnss", "lat": -33.282643134196036, "lon": 78.27298407710842, "alt_km": 1171.3765113725049, "timestamp": "2025-12-05T11:32:56.287396+00:00", "meta": {"OBJECT_NAME": "NOVA 2", "OBJECT_ID": "1988-052A", "EPOCH": "2025-12-04T16:24:02.924352", "MEAN_MOTION": 13.22934571, "ECCENTRICITY": 0.0031229, "INCLINATION": 89.9873, "RA_OF_ASC_NODE": 78.2823, "ARG_OF_PERICENTER": 38.5852, "MEAN_ANOMALY": 91.0032, "EPHEMERIS_TYPE": 0, "CLASSIFICATION_TYPE": "U", "NORAD_CAT_ID": 19223, "ELEMENT_SET_NO": 999, "REV_AT_EPOCH": 80841, "BSTAR": 0.00019797, "MEAN_MOTION_DOT": 9.2e-07, "MEAN_MOTION_DDOT": 0}, "tle": {"line1": "1 19223U 88052A   25338.68336718  .00000092  00000+0  19797-3 0  9999", "line2": "2 19223  89.9873  78.2823 0031229  38.5852  91.0032 13.22934571808414"}}, "geometry": {"type": "Point", "coordinates": [78.27298407710842, -33.282643134196036]}}, {"type": "Feature", "properties": {"norad_id": 19419, "name": "OSCAR 25", "group": "nnss", "lat": -69.33155453684836, "lon": -159.8736770414985, "alt_km": 1039.691635503089, "timestamp": "2025-12-05T11:32:56.287407+00:00", "meta": {"OBJECT_NAME": "OSCAR 25", "OBJECT_ID": "1988-074A", "EPOCH": "2025-12-04T17:02:05.685792", "MEAN_MOTION": 13.42621101, "ECCENTRICITY": 0.0094238, "INCLINATION": 90.0354, "RA_OF_ASC_NODE": 20.2175, "ARG_OF_PERICENTER": 269.1747, "MEAN_ANOMALY": 214.0355, "EPHEMERIS_TYPE": 0, "CLASSIFICATION_TYPE": "U", "NORAD_CAT_ID": 19419, "ELEMENT_SET_NO": 999, "REV_AT_EPOCH": 82532, "BSTAR": 0.00029455, "MEAN_MOTION_DOT": 1.79e-06, "MEAN_MOTION_DDOT": 0}, "tle": {"line1": "1 19419U 88074A   25338.70978803  .00000179  00000+0  29455-3 0  9998", "line2": "2 19419  90.0354  20.2175 0094238 269.1747 214.0355 13.42621101825327"}}, "geometry": {"type": "Point", "coordinates": [-159.8736770414985, -69.33155453684836]}}, {"type": "Feature", "properties": {"norad_id": 19420, "name": "OSCAR 31", "group": "nnss", "lat": 46.38035007229774, "lon": -159.39210342039516, "alt_km": 1137.3987733704043, "timestamp": "2025-12-05T11:32:56.287417+00:00", "meta": {"OBJECT_NAME": "OSCAR 31", "OBJECT_ID": "1988-074B", "EPOCH": "2025-12-04T15:46:49.752192", "MEAN_MOTION": 13.42582718, "ECCENTRICITY": 0.0092483, "INCLINATION": 90.0371, "RA_OF_ASC_NODE": 20.5659, "ARG_OF_PERICENTER": 263.4336, "MEAN_ANOMALY": 212.1839, "EPHEMERIS_TYPE": 0, "CLASSIFICATION_TYPE": "U", "NORAD_CAT_ID": 19420, "ELEMENT_SET_NO": 999, "REV_AT_EPOCH": 82542, "BSTAR": 0.00025453, "MEAN_MOTION_DOT": 1.56e-06, "MEAN_MOTION_DDOT": 0}, "tle": {"line1": "1 19420U 88074B   25338.65752028  .00000156  00000+0  25453-3 0  9992", "line2": "2 19420  90.0371  20.5659 0092483 263.4336 212.1839 13.42582718825426"}}, "geometry": {"type": "Point", "coordinates": [-159.39210342039516, 46.38035007229774]}}]}